CCSDS_OMM_VERS = 2.0
CREATION_DATE  = 
ORIGINATOR     = 

OBJECT_NAME    = SL-3 R/B
OBJECT_ID      = 1982-079B
CENTER_NAME    = EARTH
REF_FRAME      = TEME
TIME_SYSTEM    = UTC
MEAN_ELEMENT_THEORY = SGP/SGP4

EPOCH          = 2026-01-30T01:45:12.143808
MEAN_MOTION    = 15.24248858
ECCENTRICITY   = .0024328
INCLINATION    = 81.1441
RA_OF_ASC_NODE = 238.6608
ARG_OF_PERICENTER = 298.4390
MEAN_ANOMALY   = 61.4391

EPHEMERIS_TYPE = 0
CLASSIFICATION_TYPE = U
NORAD_CAT_ID   = 13403
ELEMENT_SET_NO = 999
REV_AT_EPOCH   = 37181
BSTAR          = .29317E-3
MEAN_MOTION_DOT = .7238E-4
MEAN_MOTION_DDOT = 0

CCSDS_OMM_VERS = 2.0
CREATION_DATE  = 
ORIGINATOR     = 

OBJECT_NAME    = SL-14 R/B
OBJECT_ID      = 1982-092B
CENTER_NAME    = EARTH
REF_FRAME      = TEME
TIME_SYSTEM    = UTC
MEAN_ELEMENT_THEORY = SGP/SGP4

EPOCH          = 2026-01-30T03:56:58.829856
MEAN_MOTION    = 14.86620104
ECCENTRICITY   = .0021762
INCLINATION    = 82.5691
RA_OF_ASC_NODE = 177.4219
ARG_OF_PERICENTER = 70.5582
MEAN_ANOMALY   = 101.8962

EPHEMERIS_TYPE = 0
CLASSIFICATION_TYPE = U
NORAD_CAT_ID   = 13553
ELEMENT_SET_NO = 999
REV_AT_EPOCH   = 32320
BSTAR          = .93996E-4
MEAN_MOTION_DOT = .862E-5
MEAN_MOTION_DDOT = 0

CCSDS_OMM_VERS = 2.0
CREATION_DATE  = 
ORIGINATOR     = 

OBJECT_NAME    = SL-3 R/B
OBJECT_ID      = 1983-010B
CENTER_NAME    = EARTH
REF_FRAME      = TEME
TIME_SYSTEM    = UTC
MEAN_ELEMENT_THEORY = SGP/SGP4

EPOCH          = 2026-01-30T02:41:19.872384
MEAN_MOTION    = 15.45011455
ECCENTRICITY   = .0017135
INCLINATION    = 81.1019
RA_OF_ASC_NODE = 49.5002
ARG_OF_PERICENTER = 175.8551
MEAN_ANOMALY   = 184.2838

EPHEMERIS_TYPE = 0
CLASSIFICATION_TYPE = U
NORAD_CAT_ID   = 13819
ELEMENT_SET_NO = 999
REV_AT_EPOCH   = 35198
BSTAR          = .39149E-3
MEAN_MOTION_DOT = .18611E-3
MEAN_MOTION_DDOT = 0

CCSDS_OMM_VERS = 2.0
CREATION_DATE  = 
ORIGINATOR     = 

OBJECT_NAME    = SL-3 R/B
OBJECT_ID      = 1983-075B
CENTER_NAME    = EARTH
REF_FRAME      = TEME
TIME_SYSTEM    = UTC
MEAN_ELEMENT_THEORY = SGP/SGP4

EPOCH          = 2026-01-30T02:28:44.711328
MEAN_MOTION    = 15.37392652
ECCENTRICITY   = .0022554
INCLINATION    = 97.6120
RA_OF_ASC_NODE = 33.2584
ARG_OF_PERICENTER = 13.3523
MEAN_ANOMALY   = 346.8313

EPHEMERIS_TYPE = 0
CLASSIFICATION_TYPE = U
NORAD_CAT_ID   = 14208
ELEMENT_SET_NO = 999
REV_AT_EPOCH   = 32422
BSTAR          = .42804E-3
MEAN_MOTION_DOT = .1575E-3
MEAN_MOTION_DDOT = 0

CCSDS_OMM_VERS = 2.0
CREATION_DATE  = 
ORIGINATOR     = 

OBJECT_NAME    = COSMOS 1536
OBJECT_ID      = 1984-013A
CENTER_NAME    = EARTH
REF_FRAME      = TEME
TIME_SYSTEM    = UTC
MEAN_ELEMENT_THEORY = SGP/SGP4

EPOCH          = 2026-01-30T00:51:20.021760
MEAN_MOTION    = 15.23287879
ECCENTRICITY   = .0015435
INCLINATION    = 82.5476
RA_OF_ASC_NODE = 146.2466
ARG_OF_PERICENTER = 61.5607
MEAN_ANOMALY   = 298.7183

EPHEMERIS_TYPE = 0
CLASSIFICATION_TYPE = U
NORAD_CAT_ID   = 14699
ELEMENT_SET_NO = 999
REV_AT_EPOCH   = 26673
BSTAR          = .38762E-3
MEAN_MOTION_DOT = .9254E-4
MEAN_MOTION_DDOT = 0

CCSDS_OMM_VERS = 2.0
CREATION_DATE  = 
ORIGINATOR     = 

OBJECT_NAME    = SL-14 R/B
OBJECT_ID      = 1984-027B
CENTER_NAME    = EARTH
REF_FRAME      = TEME
TIME_SYSTEM    = UTC
MEAN_ELEMENT_THEORY = SGP/SGP4

EPOCH          = 2026-01-30T02:35:56.355360
MEAN_MOTION    = 14.85937480
ECCENTRICITY   = .0019507
INCLINATION    = 82.5415
RA_OF_ASC_NODE = 281.2034
ARG_OF_PERICENTER = 100.2697
MEAN_ANOMALY   = 260.0720

EPHEMERIS_TYPE = 0
CLASSIFICATION_TYPE = U
NORAD_CAT_ID   = 14820
ELEMENT_SET_NO = 999
REV_AT_EPOCH   = 24190
BSTAR          = .77129E-4
MEAN_MOTION_DOT = .699E-5
MEAN_MOTION_DDOT = 0

CCSDS_OMM_VERS = 2.0
CREATION_DATE  = 
ORIGINATOR     = 

OBJECT_NAME    = SL-8 R/B
OBJECT_ID      = 1985-006B
CENTER_NAME    = EARTH
REF_FRAME      = TEME
TIME_SYSTEM    = UTC
MEAN_ELEMENT_THEORY = SGP/SGP4

EPOCH          = 2026-01-30T02:25:13.522944
MEAN_MOTION    = 14.37761868
ECCENTRICITY   = .0019716
INCLINATION    = 74.0477
RA_OF_ASC_NODE = 332.1524
ARG_OF_PERICENTER = 256.9730
MEAN_ANOMALY   = 113.6488

EPHEMERIS_TYPE = 0
CLASSIFICATION_TYPE = U
NORAD_CAT_ID   = 15483
ELEMENT_SET_NO = 999
REV_AT_EPOCH   = 14848
BSTAR          = .14808E-3
MEAN_MOTION_DOT = .42E-5
MEAN_MOTION_DDOT = 0

CCSDS_OMM_VERS = 2.0
CREATION_DATE  = 
ORIGINATOR     = 

OBJECT_NAME    = SL-12 R/B(2)
OBJECT_ID      = 1985-042D
CENTER_NAME    = EARTH
REF_FRAME      = TEME
TIME_SYSTEM    = UTC
MEAN_ELEMENT_THEORY = SGP/SGP4

EPOCH          = 2026-01-30T03:59:33.295776
MEAN_MOTION    = 14.21970123
ECCENTRICITY   = .0035524
INCLINATION    = 71.1079
RA_OF_ASC_NODE = 169.1142
ARG_OF_PERICENTER = 189.3399
MEAN_ANOMALY   = 343.3448

EPHEMERIS_TYPE = 0
CLASSIFICATION_TYPE = U
NORAD_CAT_ID   = 15772
ELEMENT_SET_NO = 999
REV_AT_EPOCH   = 10891
BSTAR          = .13566E-3
MEAN_MOTION_DOT = .254E-5
MEAN_MOTION_DDOT = 0

CCSDS_OMM_VERS = 2.0
CREATION_DATE  = 
ORIGINATOR     = 

OBJECT_NAME    = SL-14 R/B
OBJECT_ID      = 1985-069B
CENTER_NAME    = EARTH
REF_FRAME      = TEME
TIME_SYSTEM    = UTC
MEAN_ELEMENT_THEORY = SGP/SGP4

EPOCH          = 2026-01-30T02:30:51.124032
MEAN_MOTION    = 14.86386870
ECCENTRICITY   = .0017834
INCLINATION    = 82.5241
RA_OF_ASC_NODE = 61.2253
ARG_OF_PERICENTER = 324.2948
MEAN_ANOMALY   = 35.7075

EPHEMERIS_TYPE = 0
CLASSIFICATION_TYPE = U
NORAD_CAT_ID   = 15945
ELEMENT_SET_NO = 999
REV_AT_EPOCH   = 16710
BSTAR          = .78958E-4
MEAN_MOTION_DOT = .722E-5
MEAN_MOTION_DDOT = 0

CCSDS_OMM_VERS = 2.0
CREATION_DATE  = 
ORIGINATOR     = 

OBJECT_NAME    = SL-16 R/B
OBJECT_ID      = 1985-097B
CENTER_NAME    = EARTH
REF_FRAME      = TEME
TIME_SYSTEM    = UTC
MEAN_ELEMENT_THEORY = SGP/SGP4

EPOCH          = 2026-01-29T22:55:56.225568
MEAN_MOTION    = 14.16592628
ECCENTRICITY   = .0009167
INCLINATION    = 71.0005
RA_OF_ASC_NODE = 222.0965
ARG_OF_PERICENTER = 305.2914
MEAN_ANOMALY   = 206.5766

EPHEMERIS_TYPE = 0
CLASSIFICATION_TYPE = U
NORAD_CAT_ID   = 16182
ELEMENT_SET_NO = 999
REV_AT_EPOCH   = 8174
BSTAR          = .16416E-3
MEAN_MOTION_DOT = .28E-5
MEAN_MOTION_DDOT = 0

CCSDS_OMM_VERS = 2.0
CREATION_DATE  = 
ORIGINATOR     = 

OBJECT_NAME    = SL-14 R/B
OBJECT_ID      = 1986-006B
CENTER_NAME    = EARTH
REF_FRAME      = TEME
TIME_SYSTEM    = UTC
MEAN_ELEMENT_THEORY = SGP/SGP4

EPOCH          = 2026-01-30T02:12:21.654720
MEAN_MOTION    = 14.86757304
ECCENTRICITY   = .0077715
INCLINATION    = 82.5281
RA_OF_ASC_NODE = 296.0632
ARG_OF_PERICENTER = 41.5280
MEAN_ANOMALY   = 319.1804

EPHEMERIS_TYPE = 0
CLASSIFICATION_TYPE = U
NORAD_CAT_ID   = 16496
ELEMENT_SET_NO = 999
REV_AT_EPOCH   = 14347
BSTAR          = .12092E-3
MEAN_MOTION_DOT = .1164E-4
MEAN_MOTION_DDOT = 0

CCSDS_OMM_VERS = 2.0
CREATION_DATE  = 
ORIGINATOR     = 

OBJECT_NAME    = COSMOS 1743
OBJECT_ID      = 1986-034A
CENTER_NAME    = EARTH
REF_FRAME      = TEME
TIME_SYSTEM    = UTC
MEAN_ELEMENT_THEORY = SGP/SGP4

EPOCH          = 2026-01-29T07:29:13.235136
MEAN_MOTION    = 15.55664761
ECCENTRICITY   = .0005437
INCLINATION    = 82.5350
RA_OF_ASC_NODE = 115.0605
ARG_OF_PERICENTER = 81.7018
MEAN_ANOMALY   = 278.4852

EPHEMERIS_TYPE = 0
CLASSIFICATION_TYPE = U
NORAD_CAT_ID   = 16719
ELEMENT_SET_NO = 999
REV_AT_EPOCH   = 17412
BSTAR          = .73025E-3
MEAN_MOTION_DOT = .50438E-3
MEAN_MOTION_DDOT = 0

