SL-3 R/B,1 13403U 82079B   26030.07305722  .00007238  00000+0  29317-3 0  9998,2 13403  81.1441 238.6608 0024328 298.4390  61.4391 15.24248858371810,-10.725894946802784,-60.57698551496667,487817.5340964315
SL-14 R/B,1 13553U 82092B   26030.16456979  .00000862  00000+0  93996-4 0  9991,2 13553  82.5691 177.4219 0021762  70.5582 101.8962 14.86620104323205,-21.13374628985448,-122.8265621663524,616726.977257488
SL-3 R/B,1 13819U 83010B   26030.11203556  .00018611  00000+0  39149-3 0  9993,2 13819  81.1019  49.5002 0017135 175.8551 184.2838 15.45011455351984,17.842436508356172,-70.89760175604708,422412.821787402
SL-3 R/B,1 14208U 83075B   26030.10329527  .00015750  00000+0  42804-3 0  9996,2 14208  97.6120  33.2584 0022554  13.3523 346.8313 15.37392652324226,-20.65300729436985,-86.33181798070846,477006.8793094707
COSMOS 1536,1 14699U 84013A   26030.03564840  .00009254  00000+0  38762-3 0  9994,2 14699  82.5476 146.2466 0015435  61.5607 298.7183 15.23287879266739,-13.339592665505798,30.49462156700498,508935.03533307085
SL-14 R/B,1 14820U 84027B   26030.10829115  .00000699  00000+0  77129-4 0  9997,2 14820  82.5415 281.2034 0019507 100.2697 260.0720 14.85937480241901,71.35786830136392,141.0726076826832,609465.4098270006
SL-8 R/B,1 15483U 85006B   26030.10085096  .00000420  00000+0  14808-3 0  9999,2 15483  74.0477 332.1524 0019716 256.9730 113.6488 14.37761868148485,73.5320199761566,140.268434879834,791547.9938897077
SL-12 R/B(2),1 15772U 85042D   26030.16635759  .00000254  00000+0  13566-3 0  9998,2 15772  71.1079 169.1142 0035524 189.3399 343.3448 14.21970123108912,-69.35579097722092,116.01725627525117,836322.0822254713
SL-14 R/B,1 15945U 85069B   26030.10475838  .00000722  00000+0  78958-4 0  9990,2 15945  82.5241  61.2253 0017834 324.2948  35.7075 14.86386870167105,53.07395549206385,-66.20776212335561,629870.4608129953
SL-16 R/B,1 16182U 85097B   26029.95551187  .00000280  00000+0  16416-3 0  9997,2 16182  71.0005 222.0965 0009167 305.2914 206.5766 14.16592628 81742,-45.85652023609793,124.59550519380042,852394.4759509013
SL-14 R/B,1 16496U 86006B   26030.09191730  .00001164  00000+0  12092-3 0  9995,2 16496  82.5281 296.0632 0077715  41.5280 319.1804 14.86757304143479,-16.616482665985256,-179.15013180673424,664365.4019317504
COSMOS 1743,1 16719U 86034A   26029.31195874  .00050438  00000+0  73025-3 0  9991,2 16719  82.5350 115.0605 0005437  81.7018 278.4852 15.55664761174128,-26.568543900015232,173.0267602656224,410851.1051403225
